CCSDS_OMM_VERS = 2.0
CREATION_DATE  = 
ORIGINATOR     = 

OBJECT_NAME    = UNKNOWN
OBJECT_ID      = 
CENTER_NAME    = EARTH
REF_FRAME      = TEME
TIME_SYSTEM    = UTC
MEAN_ELEMENT_THEORY = SGP/SGP4

EPOCH          = 2025-11-15T22:21:47.584800
MEAN_MOTION    = 13.84025997
ECCENTRICITY   = .0075336
INCLINATION    = 100.3287
RA_OF_ASC_NODE = 315.9688
ARG_OF_PERICENTER = 322.0042
MEAN_ANOMALY   = 37.5808

EPHEMERIS_TYPE = 0
CLASSIFICATION_TYPE = U
NORAD_CAT_ID   = 87214
ELEMENT_SET_NO = 999
REV_AT_EPOCH   = 59653
BSTAR          = .20338E-2
MEAN_MOTION_DOT = .226E-4
MEAN_MOTION_DDOT = 0

CCSDS_OMM_VERS = 2.0
CREATION_DATE  = 
ORIGINATOR     = 

OBJECT_NAME    = UNKNOWN
OBJECT_ID      = 
CENTER_NAME    = EARTH
REF_FRAME      = TEME
TIME_SYSTEM    = UTC
MEAN_ELEMENT_THEORY = SGP/SGP4

EPOCH          = 2025-11-14T10:02:56.918976
MEAN_MOTION    = 13.91717545
ECCENTRICITY   = .0103039
INCLINATION    = 99.2593
RA_OF_ASC_NODE = 13.9576
ARG_OF_PERICENTER = 1.2735
MEAN_ANOMALY   = 19.3076

EPHEMERIS_TYPE = 0
CLASSIFICATION_TYPE = U
NORAD_CAT_ID   = 87237
ELEMENT_SET_NO = 999
REV_AT_EPOCH   = 60782
BSTAR          = .55606E-3
MEAN_MOTION_DOT = .693E-5
MEAN_MOTION_DDOT = 0

CCSDS_OMM_VERS = 2.0
CREATION_DATE  = 
ORIGINATOR     = 

OBJECT_NAME    = UNKNOWN
OBJECT_ID      = 
CENTER_NAME    = EARTH
REF_FRAME      = TEME
TIME_SYSTEM    = UTC
MEAN_ELEMENT_THEORY = SGP/SGP4

EPOCH          = 2025-11-16T19:48:00.464832
MEAN_MOTION    = 14.51266914
ECCENTRICITY   = .0019466
INCLINATION    = 82.8716
RA_OF_ASC_NODE = 104.8624
ARG_OF_PERICENTER = 126.6970
MEAN_ANOMALY   = 233.6021

EPHEMERIS_TYPE = 0
CLASSIFICATION_TYPE = U
NORAD_CAT_ID   = 87239
ELEMENT_SET_NO = 999
REV_AT_EPOCH   = 62411
BSTAR          = .45215E-2
MEAN_MOTION_DOT = .18074E-3
MEAN_MOTION_DDOT = 0

CCSDS_OMM_VERS = 2.0
CREATION_DATE  = 
ORIGINATOR     = 

OBJECT_NAME    = UNKNOWN
OBJECT_ID      = 
CENTER_NAME    = EARTH
REF_FRAME      = TEME
TIME_SYSTEM    = UTC
MEAN_ELEMENT_THEORY = SGP/SGP4

EPOCH          = 2025-11-17T03:57:57.287232
MEAN_MOTION    = 14.15385876
ECCENTRICITY   = .04345
INCLINATION    = 65.6369
RA_OF_ASC_NODE = 116.1994
ARG_OF_PERICENTER = 133.9847
MEAN_ANOMALY   = 35.9563

EPHEMERIS_TYPE = 0
CLASSIFICATION_TYPE = U
NORAD_CAT_ID   = 87245
ELEMENT_SET_NO = 999
REV_AT_EPOCH   = 61058
BSTAR          = .27539E-2
MEAN_MOTION_DOT = .13522E-3
MEAN_MOTION_DDOT = 0

CCSDS_OMM_VERS = 2.0
CREATION_DATE  = 
ORIGINATOR     = 

OBJECT_NAME    = UNKNOWN
OBJECT_ID      = 
CENTER_NAME    = EARTH
REF_FRAME      = TEME
TIME_SYSTEM    = UTC
MEAN_ELEMENT_THEORY = SGP/SGP4

EPOCH          = 2025-11-17T08:44:57.234912
MEAN_MOTION    = 14.21178004
ECCENTRICITY   = .0420187
INCLINATION    = 65.7550
RA_OF_ASC_NODE = 304.4788
ARG_OF_PERICENTER = 87.0539
MEAN_ANOMALY   = 277.8538

EPHEMERIS_TYPE = 0
CLASSIFICATION_TYPE = U
NORAD_CAT_ID   = 87271
ELEMENT_SET_NO = 999
REV_AT_EPOCH   = 60876
BSTAR          = .1563E-2
MEAN_MOTION_DOT = .8331E-4
MEAN_MOTION_DDOT = 0

CCSDS_OMM_VERS = 2.0
CREATION_DATE  = 
ORIGINATOR     = 

OBJECT_NAME    = UNKNOWN
OBJECT_ID      = 
CENTER_NAME    = EARTH
REF_FRAME      = TEME
TIME_SYSTEM    = UTC
MEAN_ELEMENT_THEORY = SGP/SGP4

EPOCH          = 2025-11-17T05:45:12.742848
MEAN_MOTION    = 13.48524177
ECCENTRICITY   = .013136
INCLINATION    = 64.6155
RA_OF_ASC_NODE = 298.4410
ARG_OF_PERICENTER = 265.5945
MEAN_ANOMALY   = 93.0076

EPHEMERIS_TYPE = 0
CLASSIFICATION_TYPE = U
NORAD_CAT_ID   = 87280
ELEMENT_SET_NO = 999
REV_AT_EPOCH   = 53041
BSTAR          = .10851E-2
MEAN_MOTION_DOT = .628E-5
MEAN_MOTION_DDOT = 0

CCSDS_OMM_VERS = 2.0
CREATION_DATE  = 
ORIGINATOR     = 

OBJECT_NAME    = UNKNOWN
OBJECT_ID      = 
CENTER_NAME    = EARTH
REF_FRAME      = TEME
TIME_SYSTEM    = UTC
MEAN_ELEMENT_THEORY = SGP/SGP4

EPOCH          = 2025-11-16T17:01:57.450144
MEAN_MOTION    = 14.17609188
ECCENTRICITY   = .0425084
INCLINATION    = 65.8981
RA_OF_ASC_NODE = 214.3986
ARG_OF_PERICENTER = 13.8084
MEAN_ANOMALY   = 347.4206

EPHEMERIS_TYPE = 0
CLASSIFICATION_TYPE = U
NORAD_CAT_ID   = 87293
ELEMENT_SET_NO = 999
REV_AT_EPOCH   = 61030
BSTAR          = .27867E-2
MEAN_MOTION_DOT = .13918E-3
MEAN_MOTION_DDOT = 0

CCSDS_OMM_VERS = 2.0
CREATION_DATE  = 
ORIGINATOR     = 

OBJECT_NAME    = UNKNOWN
OBJECT_ID      = 
CENTER_NAME    = EARTH
REF_FRAME      = TEME
TIME_SYSTEM    = UTC
MEAN_ELEMENT_THEORY = SGP/SGP4

EPOCH          = 2025-11-13T21:46:50.266272
MEAN_MOTION    = 13.99296480
ECCENTRICITY   = .0030012
INCLINATION    = 100.0854
RA_OF_ASC_NODE = 297.4832
ARG_OF_PERICENTER = 7.8292
MEAN_ANOMALY   = 352.3331

EPHEMERIS_TYPE = 0
CLASSIFICATION_TYPE = U
NORAD_CAT_ID   = 87300
ELEMENT_SET_NO = 999
REV_AT_EPOCH   = 60908
BSTAR          = .30592E-2
MEAN_MOTION_DOT = .4411E-4
MEAN_MOTION_DDOT = 0

CCSDS_OMM_VERS = 2.0
CREATION_DATE  = 
ORIGINATOR     = 

OBJECT_NAME    = UNKNOWN
OBJECT_ID      = 
CENTER_NAME    = EARTH
REF_FRAME      = TEME
TIME_SYSTEM    = UTC
MEAN_ELEMENT_THEORY = SGP/SGP4

EPOCH          = 2025-11-11T22:15:34.725600
MEAN_MOTION    = 14.75245741
ECCENTRICITY   = .0018644
INCLINATION    = 74.0210
RA_OF_ASC_NODE = 21.2638
ARG_OF_PERICENTER = 353.6679
MEAN_ANOMALY   = 6.4256

EPHEMERIS_TYPE = 0
CLASSIFICATION_TYPE = U
NORAD_CAT_ID   = 87304
ELEMENT_SET_NO = 999
REV_AT_EPOCH   = 64193
BSTAR          = .39532E-3
MEAN_MOTION_DOT = .2649E-4
MEAN_MOTION_DDOT = 0

CCSDS_OMM_VERS = 2.0
CREATION_DATE  = 
ORIGINATOR     = 

OBJECT_NAME    = UNKNOWN
OBJECT_ID      = 
CENTER_NAME    = EARTH
REF_FRAME      = TEME
TIME_SYSTEM    = UTC
MEAN_ELEMENT_THEORY = SGP/SGP4

EPOCH          = 2025-11-16T05:40:56.670528
MEAN_MOTION    = 13.69955543
ECCENTRICITY   = .0415323
INCLINATION    = 66.5932
RA_OF_ASC_NODE = 147.4852
ARG_OF_PERICENTER = 72.0397
MEAN_ANOMALY   = 292.5479

EPHEMERIS_TYPE = 0
CLASSIFICATION_TYPE = U
NORAD_CAT_ID   = 87320
ELEMENT_SET_NO = 999
REV_AT_EPOCH   = 59011
BSTAR          = .20413E-2
MEAN_MOTION_DOT = .3228E-4
MEAN_MOTION_DDOT = 0

CCSDS_OMM_VERS = 2.0
CREATION_DATE  = 
ORIGINATOR     = 

OBJECT_NAME    = UNKNOWN
OBJECT_ID      = 
CENTER_NAME    = EARTH
REF_FRAME      = TEME
TIME_SYSTEM    = UTC
MEAN_ELEMENT_THEORY = SGP/SGP4

EPOCH          = 2025-11-17T13:56:42.992160
MEAN_MOTION    = 14.05329111
ECCENTRICITY   = .0079182
INCLINATION    = 90.0005
RA_OF_ASC_NODE = 271.7202
ARG_OF_PERICENTER = 329.5415
MEAN_ANOMALY   = 30.1179

EPHEMERIS_TYPE = 0
CLASSIFICATION_TYPE = U
NORAD_CAT_ID   = 87334
ELEMENT_SET_NO = 999
REV_AT_EPOCH   = 38311
BSTAR          = .19624E-1
MEAN_MOTION_DOT = .32806E-3
MEAN_MOTION_DDOT = 0

CCSDS_OMM_VERS = 2.0
CREATION_DATE  = 
ORIGINATOR     = 

OBJECT_NAME    = UNKNOWN
OBJECT_ID      = 
CENTER_NAME    = EARTH
REF_FRAME      = TEME
TIME_SYSTEM    = UTC
MEAN_ELEMENT_THEORY = SGP/SGP4

EPOCH          = 2025-11-16T19:40:06.686976
MEAN_MOTION    = 14.05834936
ECCENTRICITY   = .0088439
INCLINATION    = 89.9847
RA_OF_ASC_NODE = 268.0724
ARG_OF_PERICENTER = 310.7970
MEAN_ANOMALY   = 48.5563

EPHEMERIS_TYPE = 0
CLASSIFICATION_TYPE = U
NORAD_CAT_ID   = 87335
ELEMENT_SET_NO = 999
REV_AT_EPOCH   = 38333
BSTAR          = .20524E-1
MEAN_MOTION_DOT = .34883E-3
MEAN_MOTION_DDOT = 0

CCSDS_OMM_VERS = 2.0
CREATION_DATE  = 
ORIGINATOR     = 

OBJECT_NAME    = UNKNOWN
OBJECT_ID      = 
CENTER_NAME    = EARTH
REF_FRAME      = TEME
TIME_SYSTEM    = UTC
MEAN_ELEMENT_THEORY = SGP/SGP4

EPOCH          = 2025-11-17T08:17:56.084928
MEAN_MOTION    = 13.96203196
ECCENTRICITY   = .0057948
INCLINATION    = 82.7496
RA_OF_ASC_NODE = 80.1477
ARG_OF_PERICENTER = 44.3455
MEAN_ANOMALY   = 316.2332

EPHEMERIS_TYPE = 0
CLASSIFICATION_TYPE = U
NORAD_CAT_ID   = 87405
ELEMENT_SET_NO = 999
REV_AT_EPOCH   = 60761
BSTAR          = .27159E-2
MEAN_MOTION_DOT = .3801E-4
MEAN_MOTION_DDOT = 0

CCSDS_OMM_VERS = 2.0
CREATION_DATE  = 
ORIGINATOR     = 

OBJECT_NAME    = UNKNOWN
OBJECT_ID      = 
CENTER_NAME    = EARTH
REF_FRAME      = TEME
TIME_SYSTEM    = UTC
MEAN_ELEMENT_THEORY = SGP/SGP4

EPOCH          = 2025-11-17T12:10:17.194080
MEAN_MOTION    = 14.29274701
ECCENTRICITY   = .0068102
INCLINATION    = 65.7855
RA_OF_ASC_NODE = 42.9402
ARG_OF_PERICENTER = 301.9442
MEAN_ANOMALY   = 75.5075

EPHEMERIS_TYPE = 0
CLASSIFICATION_TYPE = U
NORAD_CAT_ID   = 87426
ELEMENT_SET_NO = 999
REV_AT_EPOCH   = 61898
BSTAR          = .29757E-2
MEAN_MOTION_DOT = .769E-4
MEAN_MOTION_DDOT = 0

CCSDS_OMM_VERS = 2.0
CREATION_DATE  = 
ORIGINATOR     = 

OBJECT_NAME    = UNKNOWN
OBJECT_ID      = 
CENTER_NAME    = EARTH
REF_FRAME      = TEME
TIME_SYSTEM    = UTC
MEAN_ELEMENT_THEORY = SGP/SGP4

EPOCH          = 2025-11-10T23:54:20.371968
MEAN_MOTION    = 13.90459596
ECCENTRICITY   = .0064392
INCLINATION    = 100.4530
RA_OF_ASC_NODE = 157.6025
ARG_OF_PERICENTER = 286.9574
MEAN_ANOMALY   = 72.4530

EPHEMERIS_TYPE = 0
CLASSIFICATION_TYPE = U
NORAD_CAT_ID   = 87448
ELEMENT_SET_NO = 999
REV_AT_EPOCH   = 60482
BSTAR          = .19286E-2
MEAN_MOTION_DOT = .2383E-4
MEAN_MOTION_DDOT = 0

CCSDS_OMM_VERS = 2.0
CREATION_DATE  = 
ORIGINATOR     = 

OBJECT_NAME    = UNKNOWN
OBJECT_ID      = 
CENTER_NAME    = EARTH
REF_FRAME      = TEME
TIME_SYSTEM    = UTC
MEAN_ELEMENT_THEORY = SGP/SGP4

EPOCH          = 2025-11-17T04:15:57.613824
MEAN_MOTION    = 14.13164944
ECCENTRICITY   = .0509552
INCLINATION    = 65.7810
RA_OF_ASC_NODE = 158.8133
ARG_OF_PERICENTER = 18.0998
MEAN_ANOMALY   = 343.7502

EPHEMERIS_TYPE = 0
CLASSIFICATION_TYPE = U
NORAD_CAT_ID   = 87456
ELEMENT_SET_NO = 999
REV_AT_EPOCH   = 60788
BSTAR          = .14079E-2
MEAN_MOTION_DOT = .9292E-4
MEAN_MOTION_DDOT = 0

